QIANFAN-105             
1 66047U 25233Q   25354.08782196  .00000059  00000+0  34278-4 0  9999
2 66047  88.9949  61.3299 0016122  26.3104 333.8887 13.94304499  9016
QIANFAN-106             
1 66048U 25233R   25354.11565903  .00000053  00000+0  42372-4 0  9997
2 66048  88.9948  61.3677 0015989  23.1617 337.0264 13.74019218  8991
QIANFAN-107             
1 66049U 25233S   25353.60643650  .00000049  00000+0  38601-4 0  9992
2 66049  88.9956  61.4231 0015541  27.7470 332.4520 13.73185800  8926
QIANFAN-108             
1 66050U 25233T   25354.11320885  .00000051  00000+0  41158-4 0  9997
2 66050  88.9952  61.3679 0015866  28.1759 332.0260 13.73306064  8995
